NORAD_CAT_ID,OBJECT_NAME,OBJECT_TYPE,EPOCH,MEAN_MOTION,ECCENTRICITY,INCLINATION,RA_OF_ASC_NODE,ARG_OF_PERICENTER,MEAN_ANOMALY,BSTAR,MEAN_MOTION_DOT,MEAN_MOTION_DDOT,TLE_LINE0,TLE_LINE1,TLE_LINE2,SEMIMAJOR_AXIS,PERIOD,APOGEE,PERIGEE,DECAYED
52627.0,STARLINK-3992,PAYLOAD,2023-11-30 11:06:04,15.08847068,0.0001752,53.2199,36.1587,103.1483,256.9704,-4.3266e-05,-9.77e-06,0.0,0 STARLINK-3992,1 52627U 22052AF  23334.46254904 -.00000977  00000-0 -43266-4 0  9992,2 52627  53.2199  36.1587 0001752 103.1483 256.9704 15.08847068 86035,6917.859,95.437,540.936,538.512,0.0
52627.0,STARLINK-3992,PAYLOAD,2023-12-01 07:46:05,15.08840237,0.0002,53.2198,32.2919,119.6047,240.5145,-4.6021e-06,-3.61e-06,0.0,0 STARLINK-3992,1 52627U 22052AF  23335.32367054 -.00000361  00000-0 -46021-5 0  9999,2 52627  53.2198  32.2919 0002000 119.6047 240.5145 15.08840237 86168,6917.88,95.438,541.128,538.361,0.0
52627.0,STARLINK-3992,PAYLOAD,2023-12-01 09:21:28,15.0884264,0.000186,53.2197,31.9937,114.4724,245.6463,1.4669e-05,-5.5e-07,0.0,0 STARLINK-3992,1 52627U 22052AF  23335.38990866 -.00000055  00000-0  14669-4 0  9999,2 52627  53.2197  31.9937 0001860 114.4724 245.6463 15.08842640 85800,6917.872,95.437,541.024,538.451,0.0
52627.0,STARLINK-3992,PAYLOAD,2023-12-02 10:47:36,15.0887368,0.0001682,53.2189,27.2383,87.7377,272.3808,0.00052657,8.11e-05,0.0,0 STARLINK-3992,1 52627U 22052AF  23336.44972591  .00008110  00000-0  52657-3 0  9999,2 52627  53.2189  27.2383 0001682  87.7377 272.3808 15.08873680 86339,6917.777,95.435,540.806,538.479,0.0
52627.0,STARLINK-3992,PAYLOAD,2023-12-03 02:41:29,15.08831029,0.0001923,53.2193,24.2617,114.1561,245.9632,-0.00029034,-4.905e-05,0.0,0 STARLINK-3992,1 52627U 22052AF  23337.11214566 -.00004905  00000-0 -29034-3 0  9998,2 52627  53.2193  24.2617 0001923 114.1561 245.9632 15.08831029 86432,6917.908,95.438,541.103,538.442,0.0
52627.0,STARLINK-3992,PAYLOAD,2023-12-03 10:38:28,15.08806711,0.0001627,53.2196,22.7735,90.9621,269.1557,-0.00031563,-5.303e-05,0.0,0 STARLINK-3992,1 52627U 22052AF  23337.44338153 -.00005303  00000-0 -31563-3 0  9996,2 52627  53.2196  22.7735 0001627  90.9621 269.1557 15.08806711 86487,6917.982,95.44,540.973,538.722,0.0
52627.0,STARLINK-3992,PAYLOAD,2023-12-03 13:49:14,15.08808069,0.0001683,53.2198,22.1774,106.8472,253.2705,-0.00030106,-5.072e-05,0.0,0 STARLINK-3992,1 52627U 22052AF  23337.57586134 -.00005072  00000-0 -30106-3 0  9999,2 52627  53.2198  22.1774 0001683 106.8472 253.2705 15.08808069 86138,6917.978,95.44,541.007,538.679,0.0
52627.0,STARLINK-3992,PAYLOAD,2023-12-04 10:29:14,15.08840626,0.0002619,53.2209,18.3097,53.8565,306.2669,-0.00017859,-3.13e-05,0.0,0 STARLINK-3992,1 52627U 22052AF  23338.43696899 -.00003130  00000-0 -17859-3 0  9998,2 52627  53.2209  18.3097 0002619  53.8565 306.2669 15.08840626 86638,6917.878,95.438,541.555,537.932,0.0
52627.0,STARLINK-3992,PAYLOAD,2023-12-05 08:44:37,15.08833601,0.0002351,53.2191,14.1539,58.6073,301.5149,0.00055535,8.56e-05,0.0,0 STARLINK-3992,1 52627U 22052AF  23339.36432095  .00008560  00000-0  55535-3 0  9990,2 52627  53.2191  14.1539 0002351  58.6073 301.5149 15.08833601 86774,6917.9,95.438,541.391,538.139,0.0
52627.0,STARLINK-3992,PAYLOAD,2023-12-06 11:46:10,15.08852675,0.0001716,53.2188,9.0931,78.4254,281.6931,9.2352e-05,1.182e-05,0.0,0 STARLINK-3992,1 52627U 22052AF  23340.49039672  .00001182  00000-0  92352-4 0  9992,2 52627  53.2188   9.0931 0001716  78.4254 281.6931 15.08852675 86942,6917.842,95.437,540.894,538.52,0.0
52627.0,STARLINK-3992,PAYLOAD,2023-12-07 08:26:11,15.08851752,0.0001838,53.2191,5.225,97.7894,262.3307,-0.00018742,-3.271e-05,0.0,0 STARLINK-3992,1 52627U 22052AF  23341.35151809 -.00003271  00000-0 -18742-3 0  9998,2 52627  53.2191   5.2250 0001838  97.7894 262.3307 15.08851752 87070,6917.844,95.437,540.981,538.438,0.0
52627.0,STARLINK-3992,PAYLOAD,2023-12-08 01:55:25,15.0884641,0.000187,53.2189,1.9515,89.7549,270.3658,-0.00014285,-2.561e-05,0.0,0 STARLINK-3992,1 52627U 22052AF  23342.08016051 -.00002561  00000-0 -14285-3 0  9997,2 52627  53.2189   1.9515 0001870  89.7549 270.3658 15.08846410 87183,6917.861,95.437,541.019,538.432,0.0
52627.0,STARLINK-3992,PAYLOAD,2023-12-08 08:16:58,15.08844757,0.0001782,53.2186,0.7641,90.2165,269.9032,-3.8783e-05,-9.05e-06,0.0,0 STARLINK-3992,1 52627U 22052AF  23342.34511661 -.00000905  00000-0 -38783-4 0  9993,2 52627  53.2186   0.7641 0001782  90.2165 269.9032 15.08844757 86855,6917.866,95.437,540.964,538.498,0.0
52627.0,STARLINK-3992,PAYLOAD,2023-12-09 08:07:45,15.08840794,0.0001846,53.2188,356.3096,96.3094,263.8108,0.00010147,1.327e-05,0.0,0 STARLINK-3992,1 52627U 22052AF  23343.33871610  .00001327  00000-0  10147-3 0  9996,2 52627  53.2188 356.3096 0001846  96.3094 263.8108 15.08840794 87372,6917.878,95.438,541.02,538.466,0.0
52627.0,STARLINK-3992,PAYLOAD,2023-12-10 09:33:56,15.08831541,0.0001864,53.2186,351.5507,93.9862,266.1343,-9.1635e-06,-4.34e-06,0.0,0 STARLINK-3992,1 52627U 22052AF  23344.39856864 -.00000434  00000-0 -91635-5 0  9990,2 52627  53.2186 351.5507 0001864  93.9862 266.1343 15.08831541 87535,6917.906,95.438,541.061,538.482,0.0
52627.0,STARLINK-3992,PAYLOAD,2023-12-11 04:38:33,15.08841011,0.0001874,53.2181,347.9791,94.1423,265.9783,1.0511e-05,-1.21e-06,0.0,0 STARLINK-3992,1 52627U 22052AF  23345.19344361 -.00000121  00000-0  10511-4 0  9998,2 52627  53.2181 347.9791 0001874  94.1423 265.9783 15.08841011 87652,6917.877,95.437,541.039,538.446,0.0
52627.0,STARLINK-3992,PAYLOAD,2023-12-11 07:49:19,15.08842391,0.0001818,53.2187,347.3882,84.5357,275.5843,3.0136e-05,1.92e-06,0.0,0 STARLINK-3992,1 52627U 22052AF  23345.32592295  .00000192  00000-0  30136-4 0  9996,2 52627  53.2187 347.3882 0001818  84.5357 275.5843 15.08842391 87308,6917.873,95.437,540.996,538.48,0.0
52627.0,STARLINK-3992,PAYLOAD,2023-12-12 07:40:07,15.08839686,0.0001889,53.219,342.9282,73.3605,286.7595,5.5405e-05,5.94e-06,0.0,0 STARLINK-3992,1 52627U 22052AF  23346.31952695  .00000594  00000-0  55405-4 0  9992,2 52627  53.2190 342.9282 0001889  73.3605 286.7595 15.08839686 87825,6917.881,95.438,541.053,538.44,0.0
52627.0,STARLINK-3992,PAYLOAD,2023-12-13 05:55:30,15.08843632,0.000194,53.2189,338.7657,72.4424,287.678,5.4108e-05,5.73e-06,0.0,0 STARLINK-3992,1 52627U 22052AF  23347.24688413  .00000573  00000-0  54108-4 0  9995,2 52627  53.2189 338.7657 0001940  72.4424 287.6780 15.08843632 87595,6917.869,95.437,541.076,538.392,0.0
52627.0,STARLINK-3992,PAYLOAD,2023-12-14 04:10:54,15.08840697,0.0001705,53.2179,334.603,84.4419,275.6768,2.547e-05,1.17e-06,0.0,0 STARLINK-3992,1 52627U 22052AF  23348.17424485  .00000117  00000-0  25470-4 0  9999,2 52627  53.2179 334.6030 0001705  84.4419 275.6768 15.08840697 88109,6917.878,95.438,540.923,538.564,0.0
52627.0,STARLINK-3992,PAYLOAD,2023-12-14 05:46:17,15.08841884,0.0001708,53.2178,334.305,84.8993,275.2194,3.6495e-05,2.93e-06,0.0,0 STARLINK-3992,1 52627U 22052AF  23348.24048384  .00000293  00000-0  36495-4 0  9991,2 52627  53.2178 334.3050 0001708  84.8993 275.2194 15.08841884 87748,6917.875,95.437,540.921,538.558,0.0
52627.0,STARLINK-3992,PAYLOAD,2023-12-15 04:01:42,15.08835769,0.0001907,53.2188,330.1414,104.2349,255.8855,-8.3575e-06,-4.21e-06,0.0,0 STARLINK-3992,1 52627U 22052AF  23349.16784882 -.00000421  00000-0 -83575-5 0  9990,2 52627  53.2188 330.1414 0001907 104.2349 255.8855 15.08835769 88250,6917.893,95.438,541.078,538.439,0.0
52627.0,STARLINK-3992,PAYLOAD,2023-12-15 05:37:05,15.08836676,0.0001884,53.2188,329.843,102.523,257.5973,-2.4879e-06,-3.28e-06,0.0,0 STARLINK-3992,1 52627U 22052AF  23349.23408822 -.00000328  00000-0 -24879-5 0  9993,2 52627  53.2188 329.8430 0001884 102.5230 257.5973 15.08836676 87894,6917.891,95.438,541.059,538.452,0.0
52627.0,STARLINK-3992,PAYLOAD,2023-12-16 03:52:29,15.08836866,0.0001961,53.2193,325.6816,107.4014,252.7193,4.7037e-05,4.6e-06,0.0,0 STARLINK-3992,1 52627U 22052AF  23350.16144824  .00000460  00000-0  47037-4 0  9991,2 52627  53.2193 325.6816 0001961 107.4014 252.7193 15.08836866 88031,6917.89,95.438,541.112,538.398,0.0
52627.0,STARLINK-3992,PAYLOAD,2023-12-17 03:43:16,15.08839786,0.0001883,53.2191,321.2226,107.5303,252.5895,7.379e-05,8.86e-06,0.0,0 STARLINK-3992,1 52627U 22052AF  23351.15504757  .00000886  00000-0  73790-4 0  9993,2 52627  53.2191 321.2226 0001883 107.5303 252.5895 15.08839786 88559,6917.881,95.438,541.049,538.443,0.0
52627.0,STARLINK-3992,PAYLOAD,2023-12-17 05:18:39,15.08842395,0.0001867,53.2192,320.9245,106.0667,254.0531,9.4803e-05,1.221e-05,0.0,0 STARLINK-3992,1 52627U 22052AF  23351.22128563  .00001221  00000-0  94803-4 0  9990,2 52627  53.2192 320.9245 0001867 106.0667 254.0531 15.08842395 88190,6917.873,95.437,541.03,538.447,0.0
52627.0,STARLINK-3992,PAYLOAD,2023-12-18 05:09:25,15.08847987,0.0001842,53.2195,316.4599,83.5601,276.5601,0.00010413,1.37e-05,0.0,0 STARLINK-3992,1 52627U 22052AF  23352.21488257  .00001370  00000-0  10413-3 0  9998,2 52627  53.2195 316.4599 0001842  83.5601 276.5601 15.08847987 88712,6917.856,95.437,540.995,538.447,0.0
52627.0,STARLINK-3992,PAYLOAD,2023-12-19 03:24:51,15.0882927,0.0001609,53.2194,312.3013,109.0428,251.0738,-7.5657e-05,-1.492e-05,0.0,0 STARLINK-3992,1 52627U 22052AF  23353.14226260 -.00001492  00000-0 -75657-4 0  9994,2 52627  53.2194 312.3013 0001609 109.0428 251.0738 15.08829270 88858,6917.913,95.438,540.891,538.665,0.0
52627.0,STARLINK-3992,PAYLOAD,2023-12-19 05:00:14,15.08829831,0.0001587,53.2191,312.001,93.6939,266.4234,-6.4634e-05,-1.316e-05,0.0,0 STARLINK-3992,1 52627U 22052AF  23353.20850321 -.00001316  00000-0 -64634-4 0  9990,2 52627  53.2191 312.0010 0001587  93.6939 266.4234 15.08829831 88493,6917.911,95.438,540.874,538.679,0.0
52627.0,STARLINK-3992,PAYLOAD,2023-12-20 03:15:37,15.08848672,0.0001391,53.2189,307.8412,90.7376,269.3776,4.8238e-05,4.8e-06,0.0,0 STARLINK-3992,1 52627U 22052AF  23354.13585143  .00000480  00000-0  48238-4 0  9991,2 52627  53.2189 307.8412 0001391  90.7376 269.3776 15.08848672 89009,6917.854,95.437,540.681,538.757,0.0
